{
  "type": "FeatureCollection",
  "features": [
    {
      "type": "Feature",
      "properties": {
        "norad_id": 37867,
        "name": "COSMOS 2476 (744)",
        "group": "glo-ops",
        "lat": 27.707068584202247,
        "lon": -115.17046402577465,
        "alt_km": 19121.539857576565,
        "timestamp": "2025-12-21T18:54:58.757674+00:00",
        "meta_object_name": "COSMOS 2476 (744)",
        "meta_object_id": "2011-064A",
        "meta_epoch": "2025-12-19T06:05:26.552256",
        "meta_mean_motion": 2.13103916,
        "meta_eccentricity": 0.0024321,
        "meta_inclination": 65.1662,
        "meta_ra_of_asc_node": 78.9509,
        "meta_arg_of_pericenter": 234.6548,
        "meta_mean_anomaly": 130.4776,
        "meta_ephemeris_type": 0,
        "meta_classification_type": "U",
        "meta_norad_cat_id": 37867,
        "meta_element_set_no": 999,
        "meta_rev_at_epoch": 10993,
        "meta_bstar": 0,
        "meta_mean_motion_dot": -3e-07,
        "meta_mean_motion_ddot": 0,
        "tle_line1": "1 37867U 11064A   25353.25377954 -.00000030  00000+0  00000+0 0  9995",
        "tle_line2": "2 37867  65.1662  78.9509 0024321 234.6548 130.4776  2.13103916109937"
      },
      "geometry": {
        "type": "Point",
        "coordinates": [
          -115.17046402577465,
          27.707068584202247
        ]
      }
    },
    {
      "type": "Feature",
      "properties": {
        "norad_id": 37868,
        "name": "COSMOS 2477 (745)",
        "group": "glo-ops",
        "lat": -26.50114215918467,
        "lon": 65.63490305216453,
        "alt_km": 19138.54787637454,
        "timestamp": "2025-12-21T18:54:58.757687+00:00",
        "meta_object_name": "COSMOS 2477 (745)",
        "meta_object_id": "2011-064B",
        "meta_epoch": "2025-12-21T10:11:05.859168",
        "meta_mean_motion": 2.13103052,
        "meta_eccentricity": 0.00215188,
        "meta_inclination": 65.1732,
        "meta_ra_of_asc_node": 78.9552,
        "meta_arg_of_pericenter": 235.2861,
        "meta_mean_anomaly": 175.9616,
        "meta_ephemeris_type": 0,
        "meta_classification_type": "U",
        "meta_norad_cat_id": 37868,
        "meta_element_set_no": 999,
        "meta_rev_at_epoch": 10997,
        "meta_bstar": 0,
        "meta_mean_motion_dot": -9e-08,
        "meta_mean_motion_ddot": 0,
        "tle_line1": "1 37868U 11064B   25355.42437337 -.00000009  00000+0  00000+0 0  9995",
        "tle_line2": "2 37868  65.1732  78.9552 0021518 235.2861 175.9616  2.13103052109976"
      },
      "geometry": {
        "type": "Point",
        "coordinates": [
          65.63490305216453,
          -26.50114215918467
        ]
      }
    },
    {
      "type": "Feature",
      "properties": {
        "norad_id": 37869,
        "name": "COSMOS 2475 (743)",
        "group": "glo-ops",
        "lat": -60.550905582662885,
        "lon": 24.068657605714762,
        "alt_km": 19082.46475715456,
        "timestamp": "2025-12-21T18:54:58.757699+00:00",
        "meta_object_name": "COSMOS 2475 (743)",
        "meta_object_id": "2011-064C",
        "meta_epoch": "2025-12-21T11:20:32.914752",
        "meta_mean_motion": 2.13101692,
        "meta_eccentricity": 0.00265897,
        "meta_inclination": 65.1803,
        "meta_ra_of_asc_node": 78.9738,
        "meta_arg_of_pericenter": 248.9867,
        "meta_mean_anomaly": 155.1664,
        "meta_ephemeris_type": 0,
        "meta_classification_type": "U",
        "meta_norad_cat_id": 37869,
        "meta_element_set_no": 999,
        "meta_rev_at_epoch": 10998,
        "meta_bstar": 0,
        "meta_mean_motion_dot": -9e-08,
        "meta_mean_motion_ddot": 0,
        "tle_line1": "1 37869U 11064C   25355.47260318 -.00000009  00000+0  00000+0 0  9994",
        "tle_line2": "2 37869  65.1803  78.9738 0026589 248.9867 155.1664  2.13101692109984"
      },
      "geometry": {
        "type": "Point",
        "coordinates": [
          24.068657605714762,
          -60.550905582662885
        ]
      }
    },
    {
      "type": "Feature",
      "properties": {
        "norad_id": 39155,
        "name": "COSMOS 2485 (747)",
        "group": "glo-ops",
        "lat": -15.961389524078708,
        "lon": -92.87912067110071,
        "alt_km": 19078.78176130868,
        "timestamp": "2025-12-21T18:54:58.757710+00:00",
        "meta_object_name": "COSMOS 2485 (747)",
        "meta_object_id": "2013-019A",
        "meta_epoch": "2025-12-20T02:56:15.241632",
        "meta_mean_motion": 2.1310322,
        "meta_eccentricity": 0.0024876,
        "meta_inclination": 65.3174,
        "meta_ra_of_asc_node": 79.6189,
        "meta_arg_of_pericenter": 230.2075,
        "meta_mean_anomaly": 129.6042,
        "meta_ephemeris_type": 0,
        "meta_classification_type": "U",
        "meta_norad_cat_id": 39155,
        "meta_element_set_no": 999,
        "meta_rev_at_epoch": 9846,
        "meta_bstar": 0,
        "meta_mean_motion_dot": -2e-07,
        "meta_mean_motion_ddot": 0,
        "tle_line1": "1 39155U 13019A   25354.12239863 -.00000020  00000+0  00000+0 0  9991",
        "tle_line2": "2 39155  65.3174  79.6189 0024876 230.2075 129.6042  2.13103220 98462"
      },
      "geometry": {
        "type": "Point",
        "coordinates": [
          -92.87912067110071,
          -15.961389524078708
        ]
      }
    },
    {
      "type": "Feature",
      "properties": {
        "norad_id": 39620,
        "name": "COSMOS 2492 (754)",
        "group": "glo-ops",
        "lat": -43.70974935204862,
        "lon": 165.89911410562067,
        "alt_km": 19130.834338538803,
        "timestamp": "2025-12-21T18:54:58.757721+00:00",
        "meta_object_name": "COSMOS 2492 (754)",
        "meta_object_id": "2014-012A",
        "meta_epoch": "2025-12-21T00:28:06.027744",
        "meta_mean_motion": 2.13103414,
        "meta_eccentricity": 0.0014234,
        "meta_inclination": 65.403,
        "meta_ra_of_asc_node": 319.9894,
        "meta_arg_of_pericenter": 312.8453,
        "meta_mean_anomaly": 47.0277,
        "meta_ephemeris_type": 0,
        "meta_classification_type": "U",
        "meta_norad_cat_id": 39620,
        "meta_element_set_no": 999,
        "meta_rev_at_epoch": 9144,
        "meta_bstar": 0,
        "meta_mean_motion_dot": -4.8e-07,
        "meta_mean_motion_ddot": 0,
        "tle_line1": "1 39620U 14012A   25355.01951421 -.00000048  00000+0  00000+0 0  9992",
        "tle_line2": "2 39620  65.4030 319.9894 0014234 312.8453  47.0277  2.13103414 91447"
      },
      "geometry": {
        "type": "Point",
        "coordinates": [
          165.89911410562067,
          -43.70974935204862
        ]
      }
    },
    {
      "type": "Feature",
      "properties": {
        "norad_id": 40001,
        "name": "COSMOS 2500 (755)",
        "group": "glo-ops",
        "lat": 64.26918264404576,
        "lon": 67.39011736496946,
        "alt_km": 19133.045015428488,
        "timestamp": "2025-12-21T18:54:58.757732+00:00",
        "meta_object_name": "COSMOS 2500 (755)",
        "meta_object_id": "2014-032A",
        "meta_epoch": "2025-12-21T04:35:55.026240",
        "meta_mean_motion": 2.13106227,
        "meta_eccentricity": 0.00077299,
        "meta_inclination": 65.3386,
        "meta_ra_of_asc_node": 319.7453,
        "meta_arg_of_pericenter": 219.3736,
        "meta_mean_anomaly": 140.5635,
        "meta_ephemeris_type": 0,
        "meta_classification_type": "U",
        "meta_norad_cat_id": 40001,
        "meta_element_set_no": 999,
        "meta_rev_at_epoch": 8966,
        "meta_bstar": 0,
        "meta_mean_motion_dot": -4.7e-07,
        "meta_mean_motion_ddot": 0,
        "tle_line1": "1 40001U 14032A   25355.19160910 -.00000047  00000+0  00000+0 0  9992",
        "tle_line2": "2 40001  65.3386 319.7453 0007729 219.3736 140.5635  2.13106227 89663"
      },
      "geometry": {
        "type": "Point",
        "coordinates": [
          67.39011736496946,
          64.26918264404576
        ]
      }
    },
    {
      "type": "Feature",
      "properties": {
        "norad_id": 40315,
        "name": "COSMOS 2501 (702K)",
        "group": "glo-ops",
        "lat": -61.338456472699725,
        "lon": 81.84107833755975,
        "alt_km": 19106.275675815825,
        "timestamp": "2025-12-21T18:54:58.757743+00:00",
        "meta_object_name": "COSMOS 2501 (702K)",
        "meta_object_id": "2014-075A",
        "meta_epoch": "2025-12-19T02:31:27.452640",
        "meta_mean_motion": 2.13101513,
        "meta_eccentricity": 0.0020099,
        "meta_inclination": 63.6146,
        "meta_ra_of_asc_node": 196.6046,
        "meta_arg_of_pericenter": 204.1838,
        "meta_mean_anomaly": 155.7988,
        "meta_ephemeris_type": 0,
        "meta_classification_type": "U",
        "meta_norad_cat_id": 40315,
        "meta_element_set_no": 999,
        "meta_rev_at_epoch": 8601,
        "meta_bstar": 0,
        "meta_mean_motion_dot": 1.06e-06,
        "meta_mean_motion_ddot": 0,
        "tle_line1": "1 40315U 14075A   25353.10517885  .00000106  00000+0  00000+0 0  9998",
        "tle_line2": "2 40315  63.6146 196.6046 0020099 204.1838 155.7988  2.13101513 86014"
      },
      "geometry": {
        "type": "Point",
        "coordinates": [
          81.84107833755975,
          -61.338456472699725
        ]
      }
    }
  ]
}